[
    {
        "Altitude(m)": 705677.4242476127,
        "Argument of Periapsis(deg)": 0.010251109067964361,
        "Eccentricity": 0.0,
        "Inclination(deg)": 45.0,
        "Latitude(deg)": 37.66216626355946,
        "Longitude(deg)": -100.5465772592125,
        "Mean Anomaly(deg)": -300.52920501726726,
        "RAAN(deg)": 309.99032325268763,
        "Satellite Name": "Constellation 1 1367",
        "Satellite Number": 1367,
        "Semi-Major Axis(m)": 7083131.272910544,
        "Time(s)": 171
    },
    {
        "Altitude(m)": 705683.0778271136,
        "Argument of Periapsis(deg)": 0.010311057074209765,
        "Eccentricity": 0.0,
        "Inclination(deg)": 45.0,
        "Latitude(deg)": 37.689746638707255,
        "Longitude(deg)": -100.4824276674809,
        "Mean Anomaly(deg)": -300.4685038770173,
        "RAAN(deg)": 309.99026666352205,
        "Satellite Name": "Constellation 1 1367",
        "Satellite Number": 1367,
        "Semi-Major Axis(m)": 7083131.272910544,
        "Time(s)": 172
    },
    {
        "Altitude(m)": 705688.7265090109,
        "Argument of Periapsis(deg)": 0.010371005080455171,
        "Eccentricity": 0.0,
        "Inclination(deg)": 45.0,
        "Latitude(deg)": 37.7172873584154,
        "Longitude(deg)": -100.41822757185462,
        "Mean Anomaly(deg)": -300.40780273676745,
        "RAAN(deg)": 309.9902100743565,
        "Satellite Name": "Constellation 1 1367",
        "Satellite Number": 1367,
        "Semi-Major Axis(m)": 7083131.272910544,
        "Time(s)": 173
    },
    {
        "Altitude(m)": 705694.370258361,
        "Argument of Periapsis(deg)": 0.010430953086700577,
        "Eccentricity": 0.0,
        "Inclination(deg)": 45.0,
        "Latitude(deg)": 37.74478835475009,
        "Longitude(deg)": -100.35397695744707,
        "Mean Anomaly(deg)": -300.3471015965176,
        "RAAN(deg)": 309.9901534851909,
        "Satellite Name": "Constellation 1 1367",
        "Satellite Number": 1367,
        "Semi-Major Axis(m)": 7083131.272910544,
        "Time(s)": 174
    },
    {
        "Altitude(m)": 705700.0090402563,
        "Argument of Periapsis(deg)": 0.010490901092945983,
        "Eccentricity": 0.0,
        "Inclination(deg)": 45.0,
        "Latitude(deg)": 37.77224955973946,
        "Longitude(deg)": -100.28967580969909,
        "Mean Anomaly(deg)": -300.28640045626764,
        "RAAN(deg)": 309.9900968960253,
        "Satellite Name": "Constellation 1 1367",
        "Satellite Number": 1367,
        "Semi-Major Axis(m)": 7083131.272910544,
        "Time(s)": 175
    },
    {
        "Altitude(m)": 705705.642819835,
        "Argument of Periapsis(deg)": 0.010550849099191389,
        "Eccentricity": 0.0,
        "Inclination(deg)": 45.0,
        "Latitude(deg)": 37.79967090537425,
        "Longitude(deg)": -100.2253241143803,
        "Mean Anomaly(deg)": -300.22569931601777,
        "RAAN(deg)": 309.9900403068598,
        "Satellite Name": "Constellation 1 1367",
        "Satellite Number": 1367,
        "Semi-Major Axis(m)": 7083131.272910544,
        "Time(s)": 176
    },
    {
        "Altitude(m)": 705711.2715622657,
        "Argument of Periapsis(deg)": 0.010610797105436795,
        "Eccentricity": 0.0,
        "Inclination(deg)": 45.0,
        "Latitude(deg)": 37.82705232360796,
        "Longitude(deg)": -100.16092185759082,
        "Mean Anomaly(deg)": -300.16499817576783,
        "RAAN(deg)": 309.9899837176942,
        "Satellite Name": "Constellation 1 1367",
        "Satellite Number": 1367,
        "Semi-Major Axis(m)": 7083131.272910544,
        "Time(s)": 177
    },
    {
        "Altitude(m)": 705716.8952327712,
        "Argument of Periapsis(deg)": 0.0106707451116822,
        "Eccentricity": 0.0,
        "Inclination(deg)": 45.0,
        "Latitude(deg)": 37.85439374635753,
        "Longitude(deg)": -100.09646919385911,
        "Mean Anomaly(deg)": -300.10429703551796,
        "RAAN(deg)": 309.9899271285287,
        "Satellite Name": "Constellation 1 1367",
        "Satellite Number": 1367,
        "Semi-Major Axis(m)": 7083131.272910544,
        "Time(s)": 178
    },
    {
        "Altitude(m)": 705722.5137966002,
        "Argument of Periapsis(deg)": 0.010730693117927606,
        "Eccentricity": 0.0,
        "Inclination(deg)": 45.0,
        "Latitude(deg)": 37.88169510550329,
        "Longitude(deg)": -100.03196577375644,
        "Mean Anomaly(deg)": -300.043595895268,
        "RAAN(deg)": 309.98987053936304,
        "Satellite Name": "Constellation 1 1367",
        "Satellite Number": 1367,
        "Semi-Major Axis(m)": 7083131.272910544,
        "Time(s)": 179
    },
    {
        "Altitude(m)": 705728.1272190561,
        "Argument of Periapsis(deg)": 0.01079064112417301,
        "Eccentricity": 0.0,
        "Inclination(deg)": 45.0,
        "Latitude(deg)": 37.908956332889886,
        "Longitude(deg)": -99.96741175247918,
        "Mean Anomaly(deg)": -299.9828947550182,
        "RAAN(deg)": 309.98981395019746,
        "Satellite Name": "Constellation 1 1367",
        "Satellite Number": 1367,
        "Semi-Major Axis(m)": 7083131.272910544,
        "Time(s)": 180
    },
    {
        "Altitude(m)": 705733.7354654673,
        "Argument of Periapsis(deg)": 0.010850589130418416,
        "Eccentricity": 0.0,
        "Inclination(deg)": 45.0,
        "Latitude(deg)": 37.93617736032649,
        "Longitude(deg)": -99.90280711746264,
        "Mean Anomaly(deg)": -299.9221936147683,
        "RAAN(deg)": 309.98975736103193,
        "Satellite Name": "Constellation 1 1367",
        "Satellite Number": 1367,
        "Semi-Major Axis(m)": 7083131.272910544,
        "Time(s)": 181
    },
    {
        "Altitude(m)": 705739.3385012193,
        "Argument of Periapsis(deg)": 0.01091053713666382,
        "Eccentricity": 0.0,
        "Inclination(deg)": 45.0,
        "Latitude(deg)": 37.96335811958691,
        "Longitude(deg)": -99.83815185648038,
        "Mean Anomaly(deg)": -299.8614924745184,
        "RAAN(deg)": 309.98970077186635,
        "Satellite Name": "Constellation 1 1367",
        "Satellite Number": 1367,
        "Semi-Major Axis(m)": 7083131.272910544,
        "Time(s)": 182
    },
    {
        "Altitude(m)": 705744.9362917335,
        "Argument of Periapsis(deg)": 0.010970485142909228,
        "Eccentricity": 0.0,
        "Inclination(deg)": 45.0,
        "Latitude(deg)": 37.99049854241057,
        "Longitude(deg)": -99.77344595764396,
        "Mean Anomaly(deg)": -299.80079133426847,
        "RAAN(deg)": 309.98964418270083,
        "Satellite Name": "Constellation 1 1367",
        "Satellite Number": 1367,
        "Semi-Major Axis(m)": 7083131.272910544,
        "Time(s)": 183
    },
    {
        "Altitude(m)": 705750.5288024655,
        "Argument of Periapsis(deg)": 0.011030433149154634,
        "Eccentricity": 0.0,
        "Inclination(deg)": 45.0,
        "Latitude(deg)": 38.017598560502364,
        "Longitude(deg)": -99.70868940940636,
        "Mean Anomaly(deg)": -299.74009019401853,
        "RAAN(deg)": 309.9895875935352,
        "Satellite Name": "Constellation 1 1367",
        "Satellite Number": 1367,
        "Semi-Major Axis(m)": 7083131.272910544,
        "Time(s)": 184
    },
    {
        "Altitude(m)": 705756.1159989209,
        "Argument of Periapsis(deg)": 0.01109038115540004,
        "Eccentricity": 0.0,
        "Inclination(deg)": 45.0,
        "Latitude(deg)": 38.04465810553353,
        "Longitude(deg)": -99.6438823686585,
        "Mean Anomaly(deg)": -299.6793890537687,
        "RAAN(deg)": 309.9895310043696,
        "Satellite Name": "Constellation 1 1367",
        "Satellite Number": 1367,
        "Semi-Major Axis(m)": 7083131.272910544,
        "Time(s)": 185
    },
    {
        "Altitude(m)": 705761.6978466428,
        "Argument of Periapsis(deg)": 0.011150329161645444,
        "Eccentricity": 0.0,
        "Inclination(deg)": 45.0,
        "Latitude(deg)": 38.07167710914163,
        "Longitude(deg)": -99.57902448834447,
        "Mean Anomaly(deg)": -299.6186879135187,
        "RAAN(deg)": 309.9894744152041,
        "Satellite Name": "Constellation 1 1367",
        "Satellite Number": 1367,
        "Semi-Major Axis(m)": 7083131.272910544,
        "Time(s)": 186
    },
    {
        "Altitude(m)": 705767.274311225,
        "Argument of Periapsis(deg)": 0.01121027716789085,
        "Eccentricity": 0.0,
        "Inclination(deg)": 45.0,
        "Latitude(deg)": 38.098655502931294,
        "Longitude(deg)": -99.51411592604389,
        "Mean Anomaly(deg)": -299.5579867732689,
        "RAAN(deg)": 309.9894178260385,
        "Satellite Name": "Constellation 1 1367",
        "Satellite Number": 1367,
        "Semi-Major Axis(m)": 7083131.272910544,
        "Time(s)": 187
    },
    {
        "Altitude(m)": 705772.8453582805,
        "Argument of Periapsis(deg)": 0.011270225174136258,
        "Eccentricity": 0.0,
        "Inclination(deg)": 45.0,
        "Latitude(deg)": 38.12559321847469,
        "Longitude(deg)": -99.44915667158511,
        "Mean Anomaly(deg)": -299.497285633019,
        "RAAN(deg)": 309.989361236873,
        "Satellite Name": "Constellation 1 1367",
        "Satellite Number": 1367,
        "Semi-Major Axis(m)": 7083131.272910544,
        "Time(s)": 188
    },
    {
        "Altitude(m)": 705778.4109534989,
        "Argument of Periapsis(deg)": 0.011330173180381662,
        "Eccentricity": 0.0,
        "Inclination(deg)": 45.0,
        "Latitude(deg)": 38.152490187311635,
        "Longitude(deg)": -99.38414671514485,
        "Mean Anomaly(deg)": -299.4365844927691,
        "RAAN(deg)": 309.9893046477074,
        "Satellite Name": "Constellation 1 1367",
        "Satellite Number": 1367,
        "Semi-Major Axis(m)": 7083131.272910544,
        "Time(s)": 189
    }
]